CCSDS_OEM_VERS = 2.0
CREATION_DATE  = 2023-04-24T19:46:20.219
ORIGINATOR     = NASA/JSC/FOD/TOPO

META_START
OBJECT_NAME          = ISS
OBJECT_ID            = 1998-067-A
CENTER_NAME          = Earth
REF_FRAME            = EME2000
TIME_SYSTEM          = UTC
START_TIME           = 2023-04-24T13:05:30.751
USEABLE_START_TIME   = 2023-04-24T13:05:30.751
USEABLE_STOP_TIME    = 2023-05-09T13:05:30.751
STOP_TIME            = 2023-05-09T13:05:30.751
META_STOP

COMMENT Source: This file was produced by the TOPO office within FOD at JSC.
COMMENT Units are in kg and m^2
COMMENT MASS=447206.20
COMMENT DRAG_AREA=1964.62
COMMENT DRAG_COEFF=4.00
COMMENT SOLAR_RAD_AREA=0.00
COMMENT SOLAR_RAD_COEFF=0.00
COMMENT Orbits start at the ascending node epoch
COMMENT ISS first asc. node: EPOCH = 2023-04-24T13:11:15.891 $ ORBIT = 3346 $ LAN(DEG) = -175.77031
COMMENT ISS last asc. node : EPOCH = 2023-05-09T12:08:18.374 $ ORBIT = 3578 $ LAN(DEG) = 111.11543
COMMENT Begin sequence of events
COMMENT TRAJECTORY EVENT SUMMARY:
COMMENT 
COMMENT |       EVENT        |       TIG        | ORB |   DV    |   HA    |   HP    |
COMMENT |                    |       GMT        |     |   M/S   |   KM    |   KM    |
COMMENT |                    |                  |     |  (F/S)  |  (NM)   |  (NM)   |
COMMENT =============================================================================
COMMENT  GMT120 Reboost Preli  120:00:16:00.000             1.2     417.1     412.5
COMMENT                                                    (3.9)   (225.2)   (222.7)
COMMENT 
COMMENT  Crew-6 Port Rel U/D   126:11:15:00.000             0.0     418.8     413.4
COMMENT                                                    (0.0)   (226.1)   (223.2)
COMMENT 
COMMENT  Crew-6 Port Rel Dock  126:11:58:00.000             0.0     418.9     413.3
COMMENT                                                    (0.0)   (226.2)   (223.2)
COMMENT 
COMMENT =============================================================================
COMMENT End sequence of events
2023-05-07T21:30:00.000 -6693.398232410440 711.491864213029 905.094071427809 0.28725676978907 -4.85286027804315 5.92738578416167
2023-05-07T21:34:00.000 -6381.229549633520 -464.948977041034 2277.190127107620 2.29804971998959 -4.89079402519136 5.43659425160218
2023-05-07T21:38:00.000 -5603.884760165590 -1607.506513171660 3482.828641443760 4.13990850205855 -4.57232606831017 4.54890127031826
2023-05-07T21:42:00.000 -4418.395725953900 -2633.000297102580 4434.107899336310 5.67851318554887 -3.92135496657794 3.33007270329633
2023-05-07T21:46:00.000 -2911.447604677630 -3466.947833732950 5061.894592919110 6.80253317562860 -2.98595017471772 1.86970911356443
2023-05-07T21:50:00.000 -1192.892497109360 -4048.926531808970 5320.749586839460 7.43134830440969 -1.83442945257704 0.27441295205594
2023-05-07T21:54:00.000 612.301645957783 -4336.836315506450 5192.071462594710 7.52023741405644 -0.55024924980541 -1.34010912141501
2023-05-07T21:58:00.000 2373.032381487880 -4309.843517936670 4685.325052231600 7.06307291467623 0.77386158005836 -2.85701422635453
2023-05-07T22:02:00.000 3961.421602672270 -3969.849636594970 3837.347328955010 6.09270860555773 2.04225657437131 -4.16636927784786
2023-05-07T22:06:00.000 5261.975184455980 -3341.406302749390 2709.760270883370 4.67897616816305 3.16292092705050 -5.17279225211158
2023-05-07T22:10:00.000 6179.987381787170 -2470.048900665720 1384.617348921640 2.92431157915706 4.05412197646055 -5.80250716204872
2023-05-07T22:14:00.000 6648.555094692920 -1419.059735429060 -41.513669485918 0.95656313611789 4.65065169024507 -6.00915141719694
2023-05-07T22:18:00.000 6633.583577832280 -264.865927347558 -1464.626705222620 -1.08044120952473 4.90890125629443 -5.77753042895878
2023-05-07T22:22:00.000 6136.329212881630 908.589956248287 -2780.964268415880 -3.03783947807696 4.81024902516564 -5.12490010545424
2023-05-07T22:26:00.000 5193.234054339140 2016.043069165360 -3894.682833451290 -4.77313878148589 4.36231840048680 -4.09947686017749
2023-05-07T22:30:00.000 3873.109907622760 2977.141209634510 -4724.849358240800 -6.16071907904284 3.59812885963230 -2.77646052332719
2023-05-07T22:34:00.000 2271.980792483300 3722.246519131780 -5211.240693289600 -7.10073515564555 2.57332285368900 -1.25212402505207
2023-05-07T22:38:00.000 506.062366554547 4197.370209533360 -5318.569475871250 -7.52566603495024 1.36188442655659 0.36324355769886
2023-05-07T22:42:00.000 -1296.558333288470 4367.975354073110 -5038.937738296000 -7.40464490262128 0.05099579677770 1.95298717643796
2023-05-07T22:46:00.000 -3005.022127439740 4221.446398412240 -4392.419020988150 -6.74560589915700 -1.26488440819680 3.40200490306753
2023-05-07T22:50:00.000 -4495.034138177390 3768.072683419150 -3425.726133454230 -5.59508621219000 -2.49043554459144 4.60471453034476
2023-05-07T22:54:00.000 -5657.862576553900 3040.458333549980 -2209.001521596150 -4.03559740782965 -3.53614818113557 5.47265723114569
2023-05-07T22:58:00.000 -6408.404375606370 2091.311997660050 -830.870094840895 -2.18041037384396 -4.32510679841737 5.94134739736051
2023-05-07T23:02:00.000 -6691.633841131400 989.671326331130 608.013198661765 -0.16531543020641 -4.79904674360242 5.97572435110990
2023-05-07T23:06:00.000 -6486.804300851720 -184.160170607326 2002.428371084310 1.86164721831136 -4.92298875092807 5.57308835345942
2023-05-07T23:10:00.000 -5809.029012627770 -1344.581269417740 3250.449484688220 3.75164680651148 -4.68805495568284 4.76339440401443
2023-05-07T23:14:00.000 -4708.073571220480 -2407.071103023090 4261.030950031170 5.36660504221921 -4.11201507947902 3.60671108069647
2023-05-07T23:18:00.000 -3264.505149425150 -3294.416264643300 4960.677516597420 6.58946533766145 -3.23753960286828 2.18823272490980
2023-05-07T23:22:00.000 -1583.621324503440 -3942.291922672030 5298.702557752750 7.33235957983666 -2.12864106655725 0.61162020954570
2023-05-07T23:26:00.000 212.291876322768 -4303.819072250090 5250.757844869020 7.54233950692402 -0.86579313314827 -1.00861769918614
2023-05-07T23:30:00.000 1992.782666384070 -4352.844016284820 4820.471845397030 7.20464494361302 0.45976182410210 -2.55520853726849
2023-05-07T23:34:00.000 3628.552214379390 -4085.782387779320 4039.146276819630 6.34360347509340 1.75227723736495 -3.91613346728385
2023-05-07T23:38:00.000 5000.708038430250 -3521.904219258940 2963.554440054480 5.02115379357073 2.91815801230400 -4.99239719542286
2023-05-07T23:42:00.000 6009.375808277250 -2702.029428946580 1671.940529008050 3.33298056270533 3.87251178500696 -5.70523237143736
2023-05-07T23:46:00.000 6581.052455011450 -1685.659762119040 258.394840228849 1.40185327441019 4.54553694611557 -6.00219281177229
2023-05-07T23:50:00.000 6674.101190632750 -546.687417537809 -1174.001011529460 -0.63108184369509 4.88794229956184 -5.86136384947912
2023-05-07T23:54:00.000 6281.886843061020 632.046497837176 -2520.797562662570 -2.61721863023256 4.87490386419235 -5.29331647453243
2023-05-07T23:58:00.000 5433.198454971540 1764.869907345110 -3683.903041058930 -4.41182329606175 4.50777431073879 -4.34008494403267
2023-05-08T00:02:00.000 4190.003952184840 2769.562468414010 -4578.763606117450 -5.88483649232264 3.81373465889475 -3.07166957593575
2023-05-08T00:06:00.000 2642.778808234160 3573.306737411560 -5140.440492965710 -6.93011949228984 2.84340936283130 -1.58048280212062
2023-05-08T00:10:00.000 903.867299016618 4117.871465927760 -5328.194657007540 -7.47259369301282 1.66697315084484 0.02545085003352
2023-05-08T00:14:00.000 -900.601624227582 4363.715022203170 -5128.321746237510 -7.47305496864303 0.36909782169058 1.63015975978364
2023-05-08T00:18:00.000 -2639.674623462780 4292.793864850580 -4555.123198419730 -6.93076574347095 -0.95674939614432 3.11756376501134
2023-05-08T00:22:00.000 -4186.899664835810 3909.922751033650 -3649.974956031530 -5.88384238259551 -2.21464544763207 4.37944295056586
2023-05-08T00:26:00.000 -5429.452785212940 3242.562599809080 -2478.502075120760 -4.40717203291682 -3.31292892462037 5.32318767168742
2023-05-08T00:30:00.000 -6276.451427873220 2338.984439824540 -1125.967177992540 -2.60768804491066 -4.17094822180441 5.87885672614133
2023-05-08T00:34:00.000 -6665.799503828470 1264.865270729000 308.890783999574 -0.61691234439700 -4.72526344545768 6.00488023431118
2023-05-08T00:38:00.000 -6568.963908322780 98.496440596004 1721.151272369320 1.41882281523760 -4.93496405069473 5.69171743332540
2023-05-08T00:42:00.000 -5993.149302855010 -1075.064290659420 3007.565899184550 3.35002352754198 -4.78489210663857 4.96271829576077
2023-05-08T00:46:00.000 -4980.661820026610 -2170.318528626050 4074.245835377750 5.03549277705462 -4.28651477539626 3.87197692142594
2023-05-08T00:50:00.000 -3605.639768659110 -3107.626204546020 4843.558176462770 6.35280179267544 -3.47682884039042 2.49995005011985
2023-05-08T00:54:00.000 -1968.449178331730 -3818.999325211030 5259.721865635540 7.20709688153212 -2.41527121592602 0.94708621839099
2023-05-08T00:58:00.000 -188.253894750093 -4252.947436604140 5292.708908240240 7.53739592194103 -1.17901001466446 -0.67375685097423
2023-05-08T01:02:00.000 1605.605783600890 -4378.080003622760 4940.280732465010 7.32031691947216 0.14259536016346 -2.24519413116672
2023-05-08T01:06:00.000 3282.861921441240 -4185.310516383050 4228.102753813700 6.57156398941164 1.45410774501124 -3.65343027144609
2023-05-08T01:10:00.000 4721.635936334890 -3688.526362159840 3207.926330676710 5.34497480850609 2.66062875901911 -4.79613719130883
2023-05-08T01:14:00.000 5817.237895548830 -2923.668003692470 1953.950793790960 3.72920215530482 3.67437837828783 -5.58977204516083
2023-05-08T01:18:00.000 6489.859370602600 -1946.221570001840 557.502514275805 1.84168762814878 4.42131816800881 -5.97607352213806
2023-05-08T01:22:00.000 6690.499181753180 -827.218326303776 -879.610521136339 -0.17983766485193 4.84676594586678 -5.92653741286894
